OBJECT_NAME,OBJECT_ID,EPOCH,MEAN_MOTION,ECCENTRICITY,INCLINATION,RA_OF_ASC_NODE,ARG_OF_PERICENTER,MEAN_ANOMALY,EPHEMERIS_TYPE,CLASSIFICATION_TYPE,NORAD_CAT_ID,ELEMENT_SET_NO,REV_AT_EPOCH,BSTAR,MEAN_MOTION_DOT,MEAN_MOTION_DDOT
SAUDISAT 2,2004-025F,2026-07-14T23:38:56.781024,14.56698195,.0024056,98.5520,196.6871,208.8633,151.1235,0,U,28371,999,16979,.33486E-4,.1E-5,0
COSMOS 2407,2004-028A,2026-07-15T03:19:57.650880,13.76336603,.0039322,82.9586,54.1287,172.2172,306.1088,0,U,28380,999,10372,.36561E-4,.51E-6,0
COSMOS 2414,2005-002A,2026-07-15T00:04:55.054272,13.87928373,.0038765,82.9487,22.6000,249.3731,110.3273,0,U,28521,999,8767,.30603E-4,.52E-6,0
HAMSAT (VO-52),2005-017B,2026-07-15T00:34:05.286720,15.09958567,.0017582,97.9899,220.2773,304.5581,55.3987,0,U,28650,999,15096,.16877E-3,.2677E-4,0
NOAA 18,2005-018A,2026-07-15T03:34:06.559392,14.13734010,.0015296,98.8109,275.4194,73.3204,286.9646,0,U,28654,999,9026,.33683E-4,.2E-6,0
SJ-7,2005-024A,2026-07-15T00:52:53.587776,15.21934116,.0013672,97.7274,226.8954,297.3455,62.6388,0,U,28737,999,15226,.19564E-3,.4393E-4,0
CUBESAT XI-V,2005-043F,2026-07-14T23:42:55.853280,14.72702031,.0015246,98.3014,352.1993,115.8586,244.4194,0,U,28895,999,10584,.11312E-3,.669E-5,0
CLOUDSAT,2006-016A,2026-07-15T03:40:18.774912,14.86445210,.0004146,98.3916,234.9924,232.1279,127.9560,0,U,29107,999,7866,.60854E-4,.477E-5,0
CALIPSO,2006-016B,2026-07-15T03:33:59.914368,14.69400398,.0001378,98.4471,212.7659,111.0939,249.0413,0,U,29108,999,7716,.99955E-4,.538E-5,0
HINODE (SOLAR-B),2006-041A,2026-07-15T01:13:25.224096,14.68658145,.0017014,98.0548,211.7927,194.9313,165.1392,0,U,29479,999,5896,.58791E-4,.293E-5,0
METOP-A,2006-044A,2026-07-15T03:14:25.155168,14.76047258,.0173142,98.3351,303.7169,340.6746,142.1474,0,U,29499,999,2957,.61782E-4,.473E-5,0
SHIJIAN-6 02B (SJ-6 02B),2006-046B,2026-07-15T04:53:59.536320,15.01437652,.00134,97.7145,225.0891,336.2618,23.7986,0,U,29506,999,7494,.39794E-4,.453E-5,0
DMSP 5D-3 F17 (USA 191),2006-050A,2026-07-15T04:06:42.790176,14.14996220,.0009717,98.7387,202.1696,342.9585,17.1261,0,U,29522,999,1638,.66506E-5,-.31E-6,0
LAPAN-TUBSAT,2007-001A,2026-07-15T04:47:06.110592,14.85974266,.001356,98.1345,196.0563,93.6368,266.6397,0,U,29709,999,5531,-.33372E-4,-.35E-5,0
HAIYANG-1B,2007-010A,2026-07-14T21:40:24.524832,14.31033298,.0014621,98.3515,176.6758,116.5671,243.7013,0,U,31113,999,460,.27533E-4,.31E-6,0
CAPE-1,2007-012P,2026-07-14T21:37:57.252576,14.64953316,.0083054,98.4479,171.1416,345.7098,14.1755,0,U,31130,999,2241,.13835E-3,.722E-5,0
CBERS 2B,2007-042A,2026-07-14T20:52:08.321664,14.41488758,.00297315,98.3930,140.0379,250.8687,175.4575,0,U,32062,999,98867,.37548455E-4,.79E-6,0
COSMO-SKYMED 2,2007-059A,2026-07-15T04:16:11.844768,14.82150453,.0001447,97.8894,19.3708,93.9430,266.1949,0,U,32376,999,615,.25648E-4,.152E-5,0
CARTOSAT-2A,2008-021A,2026-07-15T04:27:39.725280,14.79277233,.0012505,97.7621,243.9370,27.2412,332.9454,0,U,32783,999,98294,.51405E-4,.332E-5,0
CUTE-1.7+APD II (CO-65),2008-021C,2026-07-15T03:42:47.949696,15.09700819,.0007019,97.8292,178.1627,299.6614,60.3915,0,U,32785,999,98941,.17739E-3,.2792E-4,0
SEEDS II (CO-66),2008-021J,2026-07-14T22:30:43.403040,15.33661053,.000303,97.7521,195.1811,156.6912,203.4468,0,U,32791,999,99154,.32841E-3,.10608E-3,0
YUBILEINY (RS30),2008-025A,2026-07-15T04:26:50.836704,12.43180872,.0018596,82.5057,338.0223,249.0180,110.8910,0,U,32953,999,82317,.29898E-3,.51E-6,0
FENGYUN 3A,2008-026A,2026-07-14T19:37:36.844320,14.19576476,.0009673,98.6887,136.1349,52.8286,307.3772,0,U,32958,999,93932,.29303896E-4,.18E-6,0
HUANJING 1A (HJ-1A),2008-041A,2026-07-15T05:10:23.911392,14.84048672,.0020369,97.6691,180.9730,49.5125,310.7861,0,U,33320,999,96256,.50393E-4,.37E-5,0
HUANJING 1B (HJ-1B),2008-041B,2026-07-15T04:44:24.300672,14.83366750,.0037982,97.6527,184.0421,91.2763,269.2803,0,U,33321,999,96256,.12711E-3,.1003E-4,0
SHIJIAN-6 03A (SJ-6 03A),2008-053A,2026-07-15T03:25:33.160224,15.17415886,.0009417,97.8396,230.4381,276.2393,83.7767,0,U,33408,999,96720,.54299E-4,.1013E-4,0
SHIJIAN-6 03B (SJ-6 03B),2008-053B,2026-07-15T05:39:36.754848,15.04380155,.0017752,97.8570,216.5928,310.7745,49.1939,0,U,33409,999,96696,.2616E-4,.301E-5,0
CHUANGXIN 1-02 (CX-1-02),2008-056B,2026-07-15T05:06:00.616032,14.30158074,.0015373,98.6126,222.1986,60.3790,299.8921,0,U,33434,999,92262,-.36735E-4,-.139E-5,0
