1 28371U 04025F   26195.98537941  .00000100  00000-0  33486-4 0  9990
2 28371  98.5520 196.6871 0024056 208.8633 151.1235 14.56698195169791
1 28380U 04028A   26196.13886170  .00000051  00000-0  36561-4 0  9994
2 28380  82.9586  54.1287 0039322 172.2172 306.1088 13.76336603103726
1 28521U 05002A   26196.00341498  .00000052  00000-0  30603-4 0  9991
2 28521  82.9487  22.6000 0038765 249.3731 110.3273 13.87928373 87672
1 28650U 05017B   26196.02367230  .00002677  00000-0  16877-3 0  9995
2 28650  97.9899 220.2773 0017582 304.5581  55.3987 15.09958567150969
1 28654U 05018A   26196.14868703  .00000020  00000-0  33683-4 0  9999
2 28654  98.8109 275.4194 0015296  73.3204 286.9646 14.13734010 90268
1 28737U 05024A   26196.03673134  .00004393  00000-0  19564-3 0  9996
2 28737  97.7274 226.8954 0013672 297.3455  62.6388 15.21934116152267
1 28895U 05043F   26195.98814645  .00000669  00000-0  11312-3 0  9994
2 28895  98.3014 352.1993 0015246 115.8586 244.4194 14.72702031105846
1 29107U 06016A   26196.15299508  .00000477  00000-0  60854-4 0  9990
2 29107  98.3916 234.9924 0004146 232.1279 127.9560 14.86445210 78663
1 29108U 06016B   26196.14861012  .00000538  00000-0  99955-4 0  9997
2 29108  98.4471 212.7659 0001378 111.0939 249.0413 14.69400398 77168
1 29479U 06041A   26196.05098639  .00000293  00000-0  58791-4 0  9994
2 29479  98.0548 211.7927 0017014 194.9313 165.1392 14.68658145 58962
1 29499U 06044A   26196.13501337  .00000473  00000-0  61782-4 0  9996
2 29499  98.3351 303.7169 0173142 340.6746 142.1474 14.76047258 29571
1 29506U 06046B   26196.20416130  .00000453  00000-0  39794-4 0  9997
2 29506  97.7145 225.0891 0013400 336.2618  23.7986 15.01437652 74944
1 29522U 06050A   26196.17132859 -.00000031  00000-0  66506-5 0  9994
2 29522  98.7387 202.1696 0009717 342.9585  17.1261 14.14996220 16384
1 29709U 07001A   26196.19937628 -.00000350  00000-0 -33372-4 0  9996
2 29709  98.1345 196.0563 0013560  93.6368 266.6397 14.85974266 55314
1 31113U 07010A   26195.90306163  .00000031  00000-0  27533-4 0  9996
2 31113  98.3515 176.6758 0014621 116.5671 243.7013 14.31033298  4607
1 31130U 07012P   26195.90135709  .00000722  00000-0  13835-3 0  9999
2 31130  98.4479 171.1416 0083054 345.7098  14.1755 14.64953316 22412
1 32062U 07042A   26195.86954076  .00000079  00000-0  37548-4 0  9991
2 32062  98.3930 140.0379 0029732 250.8687 175.4575 14.41488758988672
1 32376U 07059A   26196.17791487  .00000152  00000-0  25648-4 0  9997
2 32376  97.8894  19.3708 0001447  93.9430 266.1949 14.82150453  6152
1 32783U 08021A   26196.18587645  .00000332  00000-0  51405-4 0  9999
2 32783  97.7621 243.9370 0012505  27.2412 332.9454 14.79277233982943
1 32785U 08021C   26196.15472164  .00002792  00000-0  17739-3 0  9990
2 32785  97.8292 178.1627 0007019 299.6614  60.3915 15.09700819989415
1 32791U 08021J   26195.93800235  .00010608  00000-0  32841-3 0  9992
2 32791  97.7521 195.1811 0003030 156.6912 203.4468 15.33661053991545
1 32953U 08025A   26196.18531061  .00000051  00000-0  29898-3 0  9991
2 32953  82.5057 338.0223 0018596 249.0180 110.8910 12.43180872823172
1 32958U 08026A   26195.81778755  .00000018  00000-0  29304-4 0  9995
2 32958  98.6887 136.1349 0009673  52.8286 307.3772 14.19576476939323
1 33320U 08041A   26196.21555453  .00000370  00000-0  50393-4 0  9992
2 33320  97.6691 180.9730 0020369  49.5125 310.7861 14.84048672962563
1 33321U 08041B   26196.19750348  .00001003  00000-0  12711-3 0  9995
2 33321  97.6527 184.0421 0037982  91.2763 269.2803 14.83366750962568
1 33408U 08053A   26196.14274491  .00001013  00000-0  54299-4 0  9998
2 33408  97.8396 230.4381 0009417 276.2393  83.7767 15.17415886967204
1 33409U 08053B   26196.23584207  .00000301  00000-0  26160-4 0  9993
2 33409  97.8570 216.5928 0017752 310.7745  49.1939 15.04380155966962
1 33434U 08056B   26196.21250713 -.00000139  00000-0 -36735-4 0  9994
2 33434  98.6126 222.1986 0015373  60.3790 299.8921 14.30158074922629
